{
    "links": {
        "self": "http://www.neowsapp.com/rest/v1/neo/3791292?api_key=iIulBulltgU6a56xZRHN4H3l9WmuAYTsLGpBGhQ2"
    },
    "id": "3791292",
    "neo_reference_id": "3791292",
    "name": "(2017 XN2)",
    "designation": "2017 XN2",
    "nasa_jpl_url": "http://ssd.jpl.nasa.gov/sbdb.cgi?sstr=3791292",
    "absolute_magnitude_h": 25.0,
    "estimated_diameter": {
        "kilometers": {
            "estimated_diameter_min": 0.02658,
            "estimated_diameter_max": 0.0594346868
        },
        "meters": {
            "estimated_diameter_min": 26.58,
            "estimated_diameter_max": 59.4346868419
        },
        "miles": {
            "estimated_diameter_min": 0.0165160412,
            "estimated_diameter_max": 0.0369309908
        },
        "feet": {
            "estimated_diameter_min": 87.2047272,
            "estimated_diameter_max": 194.9956979785
        }
    },
    "is_potentially_hazardous_asteroid": false,
    "close_approach_data": [
        {
            "close_approach_date": "2017-12-21",
            "close_approach_date_full": "2017-Dec-21 19:48",
            "epoch_date_close_approach": 1513885680000,
            "relative_velocity": {
                "kilometers_per_second": "10.0209845282",
                "kilometers_per_hour": "36075.5443015636",
                "miles_per_hour": "22415.9402911576"
            },
            "miss_distance": {
                "astronomical": "0.0858846564",
                "lunar": "33.4091313396",
                "kilometers": "12848161.663121868",
                "miles": "7983477.4586950584"
            },
            "orbiting_body": "Earth"
        }
    ],
    "orbital_data": {
        "orbit_id": "3",
        "orbit_determination_date": "2017-12-24 06:28:04",
        "first_observation_date": "2017-12-10",
        "last_observation_date": "2017-12-24",
        "data_arc_in_days": 14,
        "observations_used": 40,
        "orbit_uncertainty": "8",
        "minimum_orbit_intersection": ".0856396",
        "jupiter_tisserand_invariant": "2.929",
        "epoch_osculation": "2458098.5",
        "eccentricity": ".6360961458842889",
        "semi_major_axis": "2.879811848722739",
        "inclination": "12.08868719142634",
        "ascending_node_longitude": "79.46842216307233",
        "orbital_period": "1785.026213614675",
        "perihelion_distance": "1.047974630878296",
        "perihelion_argument": "24.42133846099297",
        "aphelion_distance": "4.711649066567182",
        "perihelion_time": "2458121.395181440383",
        "mean_anomaly": "355.3825522249069",
        "mean_motion": ".2016777105312087",
        "equinox": "J2000",
        "orbit_class": {
            "orbit_class_type": "AMO",
            "orbit_class_description": "Near-Earth asteroid orbits similar to that of 1221 Amor",
            "orbit_class_range": "1.017 AU < q (perihelion) < 1.3 AU"
        }
    },
    "is_sentry_object": false
}